STARLINK-2271_new
1 18008C 21024AH  21326.18506988 -.00694680  00000-0 -29342-1 0  3268
2 18008  53.0429  83.5789 0001632  43.9046  14.6881 15.23422649    10
STARLINK-2271_old
1 28008C 21024AH  21325.11251990 -.00691323  00000-0 -27850-1 0  3252
2 28008  53.0437  88.5274 0001618  43.6537 246.1203 15.25012541    17
